SZ-21 MODULE            
1 66515U 25246C   25330.49001485  .00027464  00000+0  31591-3 0  9990
2 66515  41.4758 115.0872 0004962 155.9107 204.1965 15.61369573  1900
SHENZHOU-22             
1 66645U 25272A   25329.86324030  .00027410  00000+0  35414-3 0  9995
2 66645  41.4666 119.0886 0010781 270.4093  89.5510 15.58266701260525
CZ-2F R/B               
1 66646U 25272B   25330.47076975  .00449059  75676-5  29319-3 0  9998
2 66646  41.4431 114.9009 0121080 133.7676 227.3272 16.01945612   219
